FLOCK 4Q-36             
1 58274U 23174U   26062.80306151  .00038194  00000+0  66214-3 0  9999
2 58274  97.3902 151.9161 0007686 164.8534 195.2949 15.50762680129461
FLOCK 4Q-12             
1 58275U 23174V   26063.20042322  .00109634  00000+0  18656-2 0  9996
2 58275  97.3892 152.2065 0006026 170.9950 189.1411 15.51002402129549
FLOCK 4Q-28             
1 58280U 23174AA  26063.20418756  .00046509  00000+0  86769-3 0  9992
2 58280  97.3922 151.4555 0007220 170.3387 189.8003 15.48631725129466
FLOCK 4Q-27             
1 58282U 23174AC  26063.19997854  .00047510  00000+0  88699-3 0  9990
2 58282  97.3862 150.9953 0006728 165.2224 194.9224 15.48610638129475
FLOCK 4Q-26             
1 58284U 23174AE  26063.18076017  .00049320  00000+0  86400-3 0  9999
2 58284  97.3914 152.3907 0007224 167.6485 192.4945 15.50415210129528
FLOCK 4Q-31             
1 58285U 23174AF  26063.14571346  .00051898  00000+0  92501-3 0  9993
2 58285  97.3955 151.9977 0007853 169.7276 190.4137 15.49907313129478
FLOCK 4Q-30             
1 58286U 23174AG  26063.13447156  .00052374  00000+0  92594-3 0  9996
2 58286  97.3957 152.1656 0007583 166.0369 194.1094 15.50138602129484
PELICAN-1               
1 58296U 23174AS  26062.55615108  .00099332  00000+0  10652-2 0  9995
2 58296  97.4024 157.0194 0008697 249.1810 110.8518 15.63449254129605
FLOCK 4Q-25             
1 58303U 23174AZ  26062.80779879  .00062735  00000+0  90147-3 0  9993
2 58303  97.3877 152.6694 0005187 153.1282 207.0242 15.55878435129558
FLOCK 4Q-29             
1 58304U 23174BA  26063.15981204  .00052979  00000+0  97116-3 0  9992
2 58304  97.3946 151.7953 0007905 157.9758 202.1834 15.49100361129466
FLOCK 4Q-22             
1 58306U 23174BC  26062.80692674  .00048818  00000+0  81986-3 0  9990
2 58306  97.3862 151.5997 0006694 162.2117 197.9371 15.51614322129482
FLOCK 4Q-23             
1 58307U 23174BD  26063.16185087  .00069739  00000+0  10430-2 0  9996
2 58307  97.3970 153.4920 0006979 158.1460 202.0093 15.54744196129576
FLOCK 4Q-33             
1 58308U 23174BE  26063.17696160  .00046414  00000+0  80367-3 0  9999
2 58308  97.3888 151.9208 0007488 151.6526 208.5135 15.50757397129520
FLOCK 4Q-35             
1 58309U 23174BF  26063.16017830  .00053381  00000+0  95641-3 0  9992
2 58309  97.3909 152.0762 0008276 164.6599 195.4905 15.49748311129503
FLOCK 4Q-34             
1 58316U 23174BN  26063.17364888  .00067090  00000+0  99706-3 0  9997
2 58316  97.3872 152.9094 0006840 160.0517 200.1006 15.54929701129586
FLOCK 4Q-7              
1 58318U 23174BQ  26063.19274616  .00048940  00000+0  90784-3 0  9990
2 58318  97.3944 151.6403 0008088 156.5642 203.5978 15.48776839129460
