[{"OBJECT_NAME":"FLOCK 4Q-36","OBJECT_ID":"2023-174U","EPOCH":"2026-03-03T19:16:24.514464","MEAN_MOTION":15.5076268,"ECCENTRICITY":0.0007686,"INCLINATION":97.3902,"RA_OF_ASC_NODE":151.9161,"ARG_OF_PERICENTER":164.8534,"MEAN_ANOMALY":195.2949,"EPHEMERIS_TYPE":0,"CLASSIFICATION_TYPE":"U","NORAD_CAT_ID":58274,"ELEMENT_SET_NO":999,"REV_AT_EPOCH":12946,"BSTAR":0.00066214,"MEAN_MOTION_DOT":0.00038194,"MEAN_MOTION_DDOT":0},{"OBJECT_NAME":"FLOCK 4Q-12","OBJECT_ID":"2023-174V","EPOCH":"2026-03-04T04:48:36.566208","MEAN_MOTION":15.51002402,"ECCENTRICITY":0.0006026,"INCLINATION":97.3892,"RA_OF_ASC_NODE":152.2065,"ARG_OF_PERICENTER":170.995,"MEAN_ANOMALY":189.1411,"EPHEMERIS_TYPE":0,"CLASSIFICATION_TYPE":"U","NORAD_CAT_ID":58275,"ELEMENT_SET_NO":999,"REV_AT_EPOCH":12954,"BSTAR":0.0018656,"MEAN_MOTION_DOT":0.00109634,"MEAN_MOTION_DDOT":0},{"OBJECT_NAME":"FLOCK 4Q-28","OBJECT_ID":"2023-174AA","EPOCH":"2026-03-04T04:54:01.805184","MEAN_MOTION":15.48631725,"ECCENTRICITY":0.000722,"INCLINATION":97.3922,"RA_OF_ASC_NODE":151.4555,"ARG_OF_PERICENTER":170.3387,"MEAN_ANOMALY":189.8003,"EPHEMERIS_TYPE":0,"CLASSIFICATION_TYPE":"U","NORAD_CAT_ID":58280,"ELEMENT_SET_NO":999,"REV_AT_EPOCH":12946,"BSTAR":0.00086769,"MEAN_MOTION_DOT":0.00046509,"MEAN_MOTION_DDOT":0},{"OBJECT_NAME":"FLOCK 4Q-27","OBJECT_ID":"2023-174AC","EPOCH":"2026-03-04T04:47:58.145856","MEAN_MOTION":15.48610638,"ECCENTRICITY":0.0006728,"INCLINATION":97.3862,"RA_OF_ASC_NODE":150.9953,"ARG_OF_PERICENTER":165.2224,"MEAN_ANOMALY":194.9224,"EPHEMERIS_TYPE":0,"CLASSIFICATION_TYPE":"U","NORAD_CAT_ID":58282,"ELEMENT_SET_NO":999,"REV_AT_EPOCH":12947,"BSTAR":0.00088699,"MEAN_MOTION_DOT":0.0004751,"MEAN_MOTION_DDOT":0},{"OBJECT_NAME":"FLOCK 4Q-26","OBJECT_ID":"2023-174AE","EPOCH":"2026-03-04T04:20:17.678688","MEAN_MOTION":15.5041521,"ECCENTRICITY":0.0007224,"INCLINATION":97.3914,"RA_OF_ASC_NODE":152.3907,"ARG_OF_PERICENTER":167.6485,"MEAN_ANOMALY":192.4945,"EPHEMERIS_TYPE":0,"CLASSIFICATION_TYPE":"U","NORAD_CAT_ID":58284,"ELEMENT_SET_NO":999,"REV_AT_EPOCH":12952,"BSTAR":0.000864,"MEAN_MOTION_DOT":0.0004932,"MEAN_MOTION_DDOT":0},{"OBJECT_NAME":"FLOCK 4Q-31","OBJECT_ID":"2023-174AF","EPOCH":"2026-03-04T03:29:49.642944","MEAN_MOTION":15.49907313,"ECCENTRICITY":0.0007853,"INCLINATION":97.3955,"RA_OF_ASC_NODE":151.9977,"ARG_OF_PERICENTER":169.7276,"MEAN_ANOMALY":190.4137,"EPHEMERIS_TYPE":0,"CLASSIFICATION_TYPE":"U","NORAD_CAT_ID":58285,"ELEMENT_SET_NO":999,"REV_AT_EPOCH":12947,"BSTAR":0.00092501,"MEAN_MOTION_DOT":0.00051898,"MEAN_MOTION_DDOT":0},{"OBJECT_NAME":"FLOCK 4Q-30","OBJECT_ID":"2023-174AG","EPOCH":"2026-03-04T03:13:38.342784","MEAN_MOTION":15.50138602,"ECCENTRICITY":0.0007583,"INCLINATION":97.3957,"RA_OF_ASC_NODE":152.1656,"ARG_OF_PERICENTER":166.0369,"MEAN_ANOMALY":194.1094,"EPHEMERIS_TYPE":0,"CLASSIFICATION_TYPE":"U","NORAD_CAT_ID":58286,"ELEMENT_SET_NO":999,"REV_AT_EPOCH":12948,"BSTAR":0.00092594,"MEAN_MOTION_DOT":0.00052374,"MEAN_MOTION_DDOT":0},{"OBJECT_NAME":"PELICAN-1","OBJECT_ID":"2023-174AS","EPOCH":"2026-03-03T13:20:51.453312","MEAN_MOTION":15.63449254,"ECCENTRICITY":0.0008697,"INCLINATION":97.4024,"RA_OF_ASC_NODE":157.0194,"ARG_OF_PERICENTER":249.181,"MEAN_ANOMALY":110.8518,"EPHEMERIS_TYPE":0,"CLASSIFICATION_TYPE":"U","NORAD_CAT_ID":58296,"ELEMENT_SET_NO":999,"REV_AT_EPOCH":12960,"BSTAR":0.0010652,"MEAN_MOTION_DOT":0.00099332,"MEAN_MOTION_DDOT":0},{"OBJECT_NAME":"FLOCK 4Q-25","OBJECT_ID":"2023-174AZ","EPOCH":"2026-03-03T19:23:13.815456","MEAN_MOTION":15.55878435,"ECCENTRICITY":0.0005187,"INCLINATION":97.3877,"RA_OF_ASC_NODE":152.6694,"ARG_OF_PERICENTER":153.1282,"MEAN_ANOMALY":207.0242,"EPHEMERIS_TYPE":0,"CLASSIFICATION_TYPE":"U","NORAD_CAT_ID":58303,"ELEMENT_SET_NO":999,"REV_AT_EPOCH":12955,"BSTAR":0.00090147,"MEAN_MOTION_DOT":0.00062735,"MEAN_MOTION_DDOT":0},{"OBJECT_NAME":"FLOCK 4Q-29","OBJECT_ID":"2023-174BA","EPOCH":"2026-03-04T03:50:07.760256","MEAN_MOTION":15.49100361,"ECCENTRICITY":0.0007905,"INCLINATION":97.3946,"RA_OF_ASC_NODE":151.7953,"ARG_OF_PERICENTER":157.9758,"MEAN_ANOMALY":202.1834,"EPHEMERIS_TYPE":0,"CLASSIFICATION_TYPE":"U","NORAD_CAT_ID":58304,"ELEMENT_SET_NO":999,"REV_AT_EPOCH":12946,"BSTAR":0.00097116,"MEAN_MOTION_DOT":0.00052979,"MEAN_MOTION_DDOT":0},{"OBJECT_NAME":"FLOCK 4Q-22","OBJECT_ID":"2023-174BC","EPOCH":"2026-03-03T19:21:58.470336","MEAN_MOTION":15.51614322,"ECCENTRICITY":0.0006694,"INCLINATION":97.3862,"RA_OF_ASC_NODE":151.5997,"ARG_OF_PERICENTER":162.2117,"MEAN_ANOMALY":197.9371,"EPHEMERIS_TYPE":0,"CLASSIFICATION_TYPE":"U","NORAD_CAT_ID":58306,"ELEMENT_SET_NO":999,"REV_AT_EPOCH":12948,"BSTAR":0.00081986,"MEAN_MOTION_DOT":0.00048818,"MEAN_MOTION_DDOT":0},{"OBJECT_NAME":"FLOCK 4Q-23","OBJECT_ID":"2023-174BD","EPOCH":"2026-03-04T03:53:03.915168","MEAN_MOTION":15.54744196,"ECCENTRICITY":0.0006979,"INCLINATION":97.397,"RA_OF_ASC_NODE":153.492,"ARG_OF_PERICENTER":158.146,"MEAN_ANOMALY":202.0093,"EPHEMERIS_TYPE":0,"CLASSIFICATION_TYPE":"U","NORAD_CAT_ID":58307,"ELEMENT_SET_NO":999,"REV_AT_EPOCH":12957,"BSTAR":0.001043,"MEAN_MOTION_DOT":0.00069739,"MEAN_MOTION_DDOT":0},{"OBJECT_NAME":"FLOCK 4Q-33","OBJECT_ID":"2023-174BE","EPOCH":"2026-03-04T04:14:49.482240","MEAN_MOTION":15.50757397,"ECCENTRICITY":0.0007488,"INCLINATION":97.3888,"RA_OF_ASC_NODE":151.9208,"ARG_OF_PERICENTER":151.6526,"MEAN_ANOMALY":208.5135,"EPHEMERIS_TYPE":0,"CLASSIFICATION_TYPE":"U","NORAD_CAT_ID":58308,"ELEMENT_SET_NO":999,"REV_AT_EPOCH":12952,"BSTAR":0.00080367,"MEAN_MOTION_DOT":0.00046414,"MEAN_MOTION_DDOT":0},{"OBJECT_NAME":"FLOCK 4Q-35","OBJECT_ID":"2023-174BF","EPOCH":"2026-03-04T03:50:39.405120","MEAN_MOTION":15.49748311,"ECCENTRICITY":0.0008276,"INCLINATION":97.3909,"RA_OF_ASC_NODE":152.0762,"ARG_OF_PERICENTER":164.6599,"MEAN_ANOMALY":195.4905,"EPHEMERIS_TYPE":0,"CLASSIFICATION_TYPE":"U","NORAD_CAT_ID":58309,"ELEMENT_SET_NO":999,"REV_AT_EPOCH":12950,"BSTAR":0.00095641,"MEAN_MOTION_DOT":0.00053381,"MEAN_MOTION_DDOT":0},{"OBJECT_NAME":"FLOCK 4Q-34","OBJECT_ID":"2023-174BN","EPOCH":"2026-03-04T04:10:03.263232","MEAN_MOTION":15.54929701,"ECCENTRICITY":0.000684,"INCLINATION":97.3872,"RA_OF_ASC_NODE":152.9094,"ARG_OF_PERICENTER":160.0517,"MEAN_ANOMALY":200.1006,"EPHEMERIS_TYPE":0,"CLASSIFICATION_TYPE":"U","NORAD_CAT_ID":58316,"ELEMENT_SET_NO":999,"REV_AT_EPOCH":12958,"BSTAR":0.00099706,"MEAN_MOTION_DOT":0.0006709,"MEAN_MOTION_DDOT":0},{"OBJECT_NAME":"FLOCK 4Q-7","OBJECT_ID":"2023-174BQ","EPOCH":"2026-03-04T04:37:33.268224","MEAN_MOTION":15.48776839,"ECCENTRICITY":0.0008088,"INCLINATION":97.3944,"RA_OF_ASC_NODE":151.6403,"ARG_OF_PERICENTER":156.5642,"MEAN_ANOMALY":203.5978,"EPHEMERIS_TYPE":0,"CLASSIFICATION_TYPE":"U","NORAD_CAT_ID":58318,"ELEMENT_SET_NO":999,"REV_AT_EPOCH":12946,"BSTAR":0.00090784,"MEAN_MOTION_DOT":0.0004894,"MEAN_MOTION_DDOT":0}]
